FUNCUBE-1 (AO-73)       
1 39444U 13066AE  24178.40001243  .00006445  00000+0  62249-3 0  9990
2 39444  97.7198 137.3090 0049796 109.7308 250.9292 14.92232291571482
UWE-3                   
1 39446U 13066AG  24178.74453855  .00004561  00000+0  50893-3 0  9998
2 39446  97.7813 128.2804 0060066 186.3950 173.6505 14.86193674570714
BRITE-CA1 (TORONTO)     
1 40020U 14033L   24178.34961004  .00001417  00000+0  23452-3 0  9997
2 40020  97.8789 315.1498 0084216  63.4063 297.5741 14.69485813536211
DUCHIFAT-1              
1 40021U 14033M   24178.18846213  .00013912  00000+0  91793-3 0  9990
2 40021  98.0895 162.4832 0014719  74.5886 285.6965 15.07492620545487
NANOSATC-BR1            
1 40024U 14033Q   24178.19295158  .00009955  00000+0  73323-3 0  9991
2 40024  98.0652 150.6698 0008109 129.4667 230.7275 15.03532556544600
QB50P1                  
1 40025U 14033R   24178.75737239  .00007738  00000+0  62785-3 0  9992
2 40025  98.0383 139.8268 0013454 127.7787 232.4656 14.99881036544827
QB50P2                  
1 40032U 14033Y   24178.40051520  .00006748  00000+0  56731-3 0  9998
2 40032  98.0058 131.0940 0011042 122.8701 237.3585 14.98580989544050
PERSEUS-M2              
1 40037U 14033AD  24178.35763394  .00002664  00000+0  27813-3 0  9998
2 40037  97.9269 109.1805 0013673 158.5293 201.6501 14.90527405543199
PERSEUS-M1              
1 40039U 14033AF  24178.31710258  .00002046  00000+0  21612-3 0  9992
2 40039  97.9070 105.1697 0013451 158.0054 202.1743 14.90305363543045
POLYITAN-1              
1 40042U 14033AJ  24178.40939234  .00009691  00000+0  72845-3 0  9990
2 40042  98.0690 143.0731 0015543 100.6428 259.6547 15.02702956544224
TIGRISAT                
1 40043U 14033AK  24178.40785160  .00002489  00000+0  33586-3 0  9995
2 40043  97.6966 340.7392 0053904 273.5299  85.9749 14.78984364538824
AEROCUBE 6A             
1 40045U 14033AM  24178.43420459  .00006153  00000+0  73673-3 0  9990
2 40045  97.6708 351.5481 0049146 250.5214 109.0687 14.83596186539168
AEROCUBE 6B             
1 40046U 14033AN  24178.46451725  .00005570  00000+0  65420-3 0  9997
2 40046  97.6672 350.2899 0047849 245.6547 113.9669 14.84471740539220
UKUBE-1                 
1 40074U 14037F   24178.71324228  .00007658  00000+0  72360-3 0  9997
2 40074  98.3428 109.2227 0005599  55.8509 304.3239 14.94004343540201
BRITE-PL2 (HEWELIUSZ)   
1 40119U 14049B   24178.22273269  .00002856  00000+0  30946-3 0  9993
2 40119  97.8835 277.8484 0015078 339.3414  20.7192 14.88943029533926
CP10 (EXOCUBE)          
1 40380U 15003E   24178.03935324  .01282214  11354-2  11959-2 0  9998
2 40380  99.0814 208.5788 0008423 104.1802 256.0413 16.12386263520869
AEROCUBE 5C             
1 40965U 15058B   24178.50486926  .00002527  00000+0  24163-3 0  9999
2 40965  64.7712 333.0419 0190966 305.2952  53.0422 14.82901346258428
AEROCUBE 7              
1 40966U 15058C   24178.50765457  .00003393  00000+0  30793-3 0  9997
2 40966  64.7687 326.7148 0185819 304.9224  53.4546 14.84802525258496
FOX-1A (AO-85)          
1 40967U 15058D   24177.96199862  .00002265  00000+0  22237-3 0  9999
2 40967  64.7787 348.6025 0190329 301.2662  56.9923 14.82296698  6295
SINOD-D 1               
1 40968U 15058E   24177.85464024  .00003039  00000+0  28195-3 0  9992
2 40968  64.7788 341.6173 0185078 300.2842  58.0064 14.84306388  9100
SNAP-3 ALICE            
1 40970U 15058G   24178.45612083  .00011883  00000+0  82408-3 0  9995
2 40970  64.7717 296.5006 0155914 298.0659  60.4764 14.96539177  7170
LMRST-SAT               
1 40971U 15058H   24177.86969529  .00002162  00000+0  21262-3 0  9991
2 40971  64.7776 344.4165 0191414 302.6843  55.5928 14.82236171  6288
SNAP-3 EDDIE            
1 40972U 15058J   24178.46407054  .00011582  00000+0  79411-3 0  9994
2 40972  64.7696 289.8686 0156462 299.0207  59.5305 14.96896432  9279
PROPCUBE 3              
1 40973U 15058K   24177.81722076  .00002744  00000+0  25567-3 0  9990
2 40973  64.7724 332.3180 0187833 304.0311  54.3081 14.84051574  7318
BISONSAT                
1 40974U 15058L   24178.69584568  .00007953  00000+0  61421-3 0  9996
2 40974  64.7693 303.6392 0169523 301.4609  57.0027 14.91449639  7183
SNAP-3 JIMI             
1 40975U 15058M   24177.81918522  .00004145  00000+0  35551-3 0  9996
2 40975  64.7708 320.2483 0180024 303.0065  55.3855 14.87219562  6319
PROPCUBE 1 (FLORA)      
1 40976U 15058N   24177.87073933  .00002101  00000+0  21480-3 0  9997
2 40976  64.7767 359.8849 0189351 303.9187  54.4038 14.81108851  9087
SINOD-D 3               
1 40977U 15058P   24177.98349593  .00002799  00000+0  27042-3 0  9991
2 40977  64.7759 352.7663 0184043 303.0396  55.3147 14.83103177  7336
VELOX-II                
1 41171U 15077F   24175.74681636  .00246427  00000+0  13108-2 0  9993
2 41171  14.9856 359.9398 0002616  54.6251 305.4323 15.78366361472822
HORYU-4                 
1 41340U 16012D   24176.44427344  .00010505  00000+0  51763-3 0  9999
2 41340  31.0036 288.3044 0010064  49.0299 311.1211 15.16628567459252
RAVAN                   
1 41849U 16067B   24178.56062554  .00010488  00000+0  57488-3 0  9996
2 41849  98.0652 356.8009 0012714   2.5169 357.6123 15.14331629417405
CELTEE 1                
1 41850U 16067C   24178.39775176  .00005824  00000+0  39655-3 0  9994
2 41850  98.1043 348.3685 0002073 126.2364 233.9054 15.06709137416813
OPTICUBE 04             
1 41851U 16067D   24178.40830369  .00003940  00000+0  29809-3 0  9990
2 41851  98.0775 343.7302 0018204  27.4093 332.8087 15.02828986416628
AEROCUBE 8D             
1 41852U 16067E   24178.44606066  .00006581  00000+0  43258-3 0  9998
2 41852  98.1082 348.1950 0006106  82.2437 277.9483 15.07950762416798
AEROCUBE 8C             
1 41853U 16067F   24178.52623856  .00007761  00000+0  50968-3 0  9991
2 41853  98.0901 346.8352 0007880  18.3952 341.7558 15.07910601416792
PROMETHEUS 2-1          
1 41854U 16067G   24177.93315407  .00016168  00000+0  81240-3 0  9994
2 41854  98.1003 353.7078 0012437  32.3839 327.8153 15.17296585417069
PROMETHEUS 2-3          
1 41855U 16067H   24178.45720347  .00015859  00000+0  79771-3 0  9998
2 41855  98.0934 353.7471 0010724  41.1235 319.0802 15.17281664417149
DIDO-2                  
1 42000U 17008BE  24178.15905110  .00444794  84257-4  99589-3 0  9991
2 42000  97.1281 240.5773 0004602 206.0014 154.1033 15.97761145410232
AALTO-1                 
1 42775U 17036L   24178.01801528  .00112435  00000+0  92115-3 0  9995
2 42775  97.1008 207.7755 0007975 155.0932 205.0718 15.70121652390496
URSA MAIOR              
1 42776U 17036M   24178.50907969  .01368535  13319-2  12902-2 0  9996
2 42776  97.0925 213.4765 0010526 212.9959 147.0671 16.12253872390903
CORVUS BC2              
1 42846U 17042X   24178.47555322  .00003943  00000+0  33997-3 0  9995
2 42846  97.3757   3.0604 0009288  38.5646 321.6239 14.97807382378830
CORVUS BC1              
1 42847U 17042Y   24178.56926538  .00003792  00000+0  32594-3 0  9991
2 42847  97.3727   3.5535 0008391  32.1108 328.0625 14.97952351378863
MIRATA                  
1 43015U 17073C   24178.23081922  .00018615  00000+0  87253-3 0  9998
2 43015  97.5939  62.8717 0167407 229.6432 129.0077 15.08087045357695
MAKERSAT 0              
1 43016U 17073D   24177.63809569  .00007346  00000+0  41950-3 0  9990
2 43016  97.5793  56.3915 0193334 253.8932 104.0931 14.98514974357184
GOMX-4B                 
1 43196U 18015E   24178.44155723  .00060464  00000+0  61643-3 0  9993
2 43196  97.6063 352.7729 0006835 265.2027  94.8451 15.64892124356970
GOMX-4A                 
1 43197U 18015F   24178.79836880  .00151985  00000+0  85579-3 0  9995
2 43197  97.5959 358.4716 0006702 245.4408 114.6160 15.78746818357397
CICERO 10               
1 43690U 18088A   24178.52885502  .00414739  62140-4  14199-2 0  9995
2 43690  85.0021 172.4345 0009902 177.9285 182.2036 15.89584687313678
SIRION PATHFINDER-2     
1 43759U 18099B   24178.14881646  .00005032  00000+0  37922-3 0  9990
2 43759  97.5290 234.0414 0008995 250.1643 109.8613 15.02884434303858
CORVUS BC4              
1 43767U 18099K   24178.58581022  .00004291  00000+0  33006-3 0  9997
2 43767  97.5087 231.6577 0009258 322.6187  37.4393 15.02179216303806
MOVE-II                 
1 43780U 18099Y   24178.13407283  .00021373  00000+0  11083-2 0  9999
2 43780  97.5201 241.0398 0004872 306.0802  53.9979 15.16169789304287
SPACEBEE-7              
1 43816U 18099BL  24178.40433860  .00014025  00000+0  82159-3 0  9998
2 43816  97.5470 241.9929 0008806 249.6501 110.3783 15.11884334303806
SPACEBEE-6              
1 43818U 18099BN  24178.14719271  .00032743  00000+0  13499-2 0  9991
2 43818  97.5393 247.2410 0007891 244.4319 115.6102 15.23977124304277
SHIELDS 1               
1 43850U 18104B   24178.81798452  .00016577  00000+0  43979-3 0  9990
2 43850  85.0233 276.5713 0011437  45.2623 314.9557 15.38108218307643
SONATE                  
1 44400U 19038Q   24178.46379057  .00021552  00000+0  64200-3 0  9995
2 44400  97.7121 172.9745 0017985  77.1410 283.1840 15.34552506275507
LUCKY-7                 
1 44406U 19038W   24177.98224070  .00043157  00000+0  91249-3 0  9999
2 44406  97.7011 176.7003 0014680  67.2446 293.0351 15.44918474275720
DUCHIFAT-3              
1 44854U 19089C   24178.80324776  .00018226  00000+0  91122-3 0  9997
2 44854  36.9581 350.6204 0004881 175.0341 185.0455 15.16743324249662
M2 PATHFINDER           
1 45727U 20037E   24178.40885185  .00003219  00000+0  28279-3 0  9993
2 45727  97.7768 354.7940 0012208  93.1533 267.1086 14.97230795217322
NETSAT-4                
1 46504U 20068U   24178.11763407  .00010194  00000+0  54222-3 0  9998
2 46504  97.8062 135.4998 0008928 344.2188  15.8764 15.15432780205520
